NORAD_CAT_ID,OBJECT_NAME,OBJECT_TYPE,EPOCH,MEAN_MOTION,ECCENTRICITY,INCLINATION,RA_OF_ASC_NODE,ARG_OF_PERICENTER,MEAN_ANOMALY,BSTAR,MEAN_MOTION_DOT,MEAN_MOTION_DDOT,TLE_LINE0,TLE_LINE1,TLE_LINE2,SEMIMAJOR_AXIS,PERIOD,APOGEE,PERIGEE,DECAYED
56799.0,STARLINK-5953,PAYLOAD,2024-02-23 10:48:16,14.9833866,0.0003035,69.9993,63.3453,271.059,89.0221,1.7606e-05,1.17e-06,0.0,0 STARLINK-5953,1 56799U 23078AJ  24054.45019468  .00000117  00000-0  17606-4 0  9991,2 56799  69.9993  63.3453 0003035 271.0590  89.0221 14.98338660 41052,6950.166,96.106,574.14,569.922,0.0
56799.0,STARLINK-5953,PAYLOAD,2024-02-23 17:12:49,14.98333414,0.0002938,69.9996,62.6719,271.5954,88.4869,-3.6679e-05,-5.31e-06,0.0,0 STARLINK-5953,1 56799U 23078AJ  24054.71723878 -.00000531  00000-0 -36679-4 0  9990,2 56799  69.9996  62.6719 0002938 271.5954  88.4869 14.98333414 41358,6950.182,96.107,574.089,570.005,0.0
56799.0,STARLINK-5953,PAYLOAD,2024-02-24 10:50:18,14.98326991,0.0002869,69.9997,60.8209,270.528,89.555,4.723e-06,-3.7e-07,0.0,0 STARLINK-5953,1 56799U 23078AJ  24055.45160231 -.00000037  00000-0  47230-5 0  9996,2 56799  69.9997  60.8209 0002869 270.5280  89.5550 14.98326991 41202,6950.202,96.107,574.061,570.073,0.0
56799.0,STARLINK-5953,PAYLOAD,2024-02-24 17:14:50,14.9834333,0.0003007,69.9997,60.1478,271.2562,88.8253,-0.00027179,-3.336e-05,0.0,0 STARLINK-5953,1 56799U 23078AJ  24055.71863776 -.00003336  00000-0 -27179-3 0  9993,2 56799  69.9997  60.1478 0003007 271.2562  88.8253 14.98343330 41500,6950.152,96.106,574.107,569.927,0.0
56799.0,STARLINK-5953,PAYLOAD,2024-02-25 10:52:18,14.98334789,0.0002844,69.9999,58.296,268.2891,91.7942,4.3914e-06,-4.1e-07,0.0,0 STARLINK-5953,1 56799U 23078AJ  24056.45299637 -.00000041  00000-0  43914-5 0  9990,2 56799  69.9999  58.2960 0002844 268.2891  91.7942 14.98334789 41354,6950.178,96.107,574.02,570.066,0.0
56799.0,STARLINK-5953,PAYLOAD,2024-02-25 17:16:50,14.98351954,0.0002967,70.0001,57.6224,270.5204,89.5615,-0.00035687,-4.351e-05,0.0,0 STARLINK-5953,1 56799U 23078AJ  24056.72003270 -.00004351  00000-0 -35687-3 0  9991,2 56799  70.0001  57.6224 0002967 270.5204  89.5615 14.98351954 41655,6950.125,96.106,574.052,569.928,0.0
56799.0,STARLINK-5953,PAYLOAD,2024-02-26 09:18:10,14.98341281,0.000289,70.0,55.939,268.1481,91.9347,0.00015426,1.749e-05,0.0,0 STARLINK-5953,1 56799U 23078AJ  24057.38762439  .00001749  00000-0  15426-3 0  9998,2 56799  70.0000  55.9390 0002890 268.1481  91.9347 14.98341281 41497,6950.158,96.106,574.032,570.014,0.0
56799.0,STARLINK-5953,PAYLOAD,2024-02-27 02:55:40,14.98324423,0.000277,70.0003,54.0875,266.8586,93.2256,-8.5072e-05,-1.108e-05,0.0,0 STARLINK-5953,1 56799U 23078AJ  24058.12200144 -.00001108  00000-0 -85072-4 0  9997,2 56799  70.0003  54.0875 0002770 266.8586  93.2256 14.98324423 41860,6950.21,96.107,574.0,570.15,0.0
56799.0,STARLINK-5953,PAYLOAD,2024-02-27 09:20:13,14.98320581,0.0002957,70.0001,53.4137,270.548,89.534,-0.0001352,-1.705e-05,0.0,0 STARLINK-5953,1 56799U 23078AJ  24058.38904645 -.00001705  00000-0 -13520-3 0  9993,2 56799  70.0001  53.4137 0002957 270.5480  89.5340 14.98320581 41643,6950.222,96.108,574.142,570.032,0.0
56799.0,STARLINK-5953,PAYLOAD,2024-02-27 22:09:16,14.983427,0.0003233,70.0014,52.0658,270.0422,90.0366,0.00011087,1.231e-05,0.0,0 STARLINK-5953,1 56799U 23078AJ  24058.92310199  .00001231  00000-0  11087-3 0  9996,2 56799  70.0014  52.0658 0003233 270.0422  90.0366 14.98342700 41720,6950.154,96.106,574.266,569.772,0.0
56799.0,STARLINK-5953,PAYLOAD,2024-02-28 02:57:41,14.98329578,0.000257,70.0005,51.5631,241.6287,118.4613,-0.00019184,-2.381e-05,0.0,0 STARLINK-5953,1 56799U 23078AJ  24059.12339280 -.00002381  00000-0 -19184-3 0  9996,2 56799  70.0005  51.5631 0002570 241.6287 118.4613 14.98329578 42012,6950.194,96.107,573.845,570.273,0.0
56799.0,STARLINK-5953,PAYLOAD,2024-02-28 09:22:13,14.98327016,0.0002681,70.0006,50.8908,263.9208,96.1645,-0.00018639,-2.316e-05,0.0,0 STARLINK-5953,1 56799U 23078AJ  24059.39043526 -.00002316  00000-0 -18639-3 0  9992,2 56799  70.0006  50.8908 0002681 263.9208  96.1645 14.98327016 41791,6950.202,96.107,573.93,570.204,0.0
56799.0,STARLINK-5953,PAYLOAD,2024-02-29 06:11:58,14.98318016,0.0002967,70.0,48.7007,272.9996,87.0824,4.1919e-05,4.07e-06,0.0,0 STARLINK-5953,1 56799U 23078AJ  24060.25831936  .00000407  00000-0  41919-4 0  9994,2 56799  70.0000  48.7007 0002967 272.9996  87.0824 14.98318016 42184,6950.23,96.108,574.157,570.033,0.0
56799.0,STARLINK-5953,PAYLOAD,2024-02-29 09:24:14,14.98318821,0.0002939,70.0,48.364,273.0711,87.0112,4.617e-05,4.58e-06,0.0,0 STARLINK-5953,1 56799U 23078AJ  24060.39183952  .00000458  00000-0  46170-4 0  9997,2 56799  70.0000  48.3640 0002939 273.0711  87.0112 14.98318821 41946,6950.227,96.108,574.135,570.05,0.0
56799.0,STARLINK-5953,PAYLOAD,2024-02-29 15:48:47,14.98321109,0.0002982,70.0,47.6906,273.1513,86.9305,3.8261e-05,3.63e-06,0.0,0 STARLINK-5953,1 56799U 23078AJ  24060.65887948  .00000363  00000-0  38261-4 0  9999,2 56799  70.0000  47.6906 0002982 273.1513  86.9305 14.98321109 41981,6950.22,96.108,574.158,570.013,0.0
56799.0,STARLINK-5953,PAYLOAD,2024-03-01 03:01:43,14.98343881,0.0002766,69.9999,46.5121,267.5654,92.5189,-0.0003277,-4.002e-05,0.0,0 STARLINK-5953,1 56799U 23078AJ  24061.12619393 -.00004002  00000-0 -32770-3 0  9993,2 56799  69.9999  46.5121 0002766 267.5654  92.5189 14.98343881 42317,6950.15,96.106,573.937,570.093,0.0
56799.0,STARLINK-5953,PAYLOAD,2024-03-01 09:26:15,14.98347401,0.0002368,70.0002,45.8389,265.2846,94.8043,-0.0003151,-3.852e-05,0.0,0 STARLINK-5953,1 56799U 23078AJ  24061.39322982 -.00003852  00000-0 -31510-3 0  9990,2 56799  70.0002  45.8389 0002368 265.2846  94.8043 14.98347401 42090,6950.139,96.106,573.65,570.358,0.0
56799.0,STARLINK-5953,PAYLOAD,2024-03-01 15:50:47,14.98325684,0.0002941,70.0002,45.1656,273.6744,86.4079,0.00010032,1.104e-05,0.0,0 STARLINK-5953,1 56799U 23078AJ  24061.66027394  .00001104  00000-0  10032-3 0  9991,2 56799  70.0002  45.1656 0002941 273.6744  86.4079 14.98325684 42395,6950.206,96.107,574.115,570.027,0.0
56799.0,STARLINK-5953,PAYLOAD,2024-03-02 07:52:07,14.9833277,0.0002903,70.0002,43.4828,270.7269,89.3558,0.00013742,1.547e-05,0.0,0 STARLINK-5953,1 56799U 23078AJ  24062.32786933  .00001547  00000-0  13742-3 0  9998,2 56799  70.0002  43.4828 0002903 270.7269  89.3558 14.98332770 42494,6950.184,96.107,574.067,570.032,0.0
56799.0,STARLINK-5953,PAYLOAD,2024-03-03 04:41:53,14.98325579,0.0002773,70.0007,41.2949,267.6676,92.4165,-1.2191e-05,-2.38e-06,0.0,0 STARLINK-5953,1 56799U 23078AJ  24063.19575875 -.00000238  00000-0 -12191-4 0  9991,2 56799  70.0007  41.2949 0002773 267.6676  92.4165 14.98325579 42624,6950.207,96.107,573.999,570.144,0.0
56799.0,STARLINK-5953,PAYLOAD,2024-03-03 07:54:09,14.98325638,0.0002782,70.0007,40.9583,267.2566,92.8275,-1.2976e-05,-2.48e-06,0.0,0 STARLINK-5953,1 56799U 23078AJ  24063.32927907 -.00000248  00000-0 -12976-4 0  9995,2 56799  70.0007  40.9583 0002782 267.2566  92.8275 14.98325638 42383,6950.206,96.107,574.005,570.138,0.0
56799.0,STARLINK-5953,PAYLOAD,2024-03-04 04:43:53,14.98333549,0.00028,70.0007,38.7693,261.9278,98.1563,3.1755e-05,2.86e-06,0.0,0 STARLINK-5953,1 56799U 23078AJ  24064.19715166  .00000286  00000-0  31755-4 0  9999,2 56799  70.0007  38.7693 0002800 261.9278  98.1563 14.98333549 42774,6950.182,96.107,573.993,570.101,0.0
56799.0,STARLINK-5953,PAYLOAD,2024-03-04 07:56:09,14.98340487,0.0002914,70.0006,38.4334,268.6178,91.4647,6.1882e-05,6.46e-06,0.0,0 STARLINK-5953,1 56799U 23078AJ  24064.33066612  .00000646  00000-0  61882-4 0  9994,2 56799  70.0006  38.4334 0002914 268.6178  91.4647 14.98340487 42533,6950.16,96.106,574.051,570.0,0.0
56799.0,STARLINK-5953,PAYLOAD,2024-03-04 22:21:23,14.98297069,0.0002361,70.0033,36.9171,272.3039,87.785,0.00046165,5.415e-05,0.0,0 STARLINK-5953,1 56799U 23078AJ  24064.93151889  .00005415  00000-0  46165-3 0  9996,2 56799  70.0033  36.9171 0002361 272.3039  87.7850 14.98297069 42620,6950.295,96.109,573.801,570.519,0.0
56799.0,STARLINK-5953,PAYLOAD,2024-03-05 03:09:48,14.98316907,0.0003059,70.0004,36.4124,271.4329,88.6479,-0.00010253,-1.316e-05,0.0,0 STARLINK-5953,1 56799U 23078AJ  24065.13180623 -.00001316  00000-0 -10253-3 0  9994,2 56799  70.0004  36.4124 0003059 271.4329  88.6479 14.98316907 42910,6950.233,96.108,574.224,569.972,0.0
56799.0,STARLINK-5953,PAYLOAD,2024-03-05 07:58:12,14.98316651,0.0002624,70.0014,35.9075,265.0288,95.0571,-3.1152e-05,-4.64e-06,0.0,0 STARLINK-5953,1 56799U 23078AJ  24065.33208611 -.00000464  00000-0 -31152-4 0  9999,2 56799  70.0014  35.9075 0002624 265.0288  95.0571 14.98316651 42685,6950.234,96.108,573.923,570.275,0.0
56799.0,STARLINK-5953,PAYLOAD,2024-03-06 04:47:55,14.98339378,0.0002909,70.0008,33.7201,269.6385,90.4441,4.7496e-05,4.74e-06,0.0,0 STARLINK-5953,1 56799U 23078AJ  24066.19994973  .00000474  00000-0  47496-4 0  9994,2 56799  70.0008  33.7201 0002909 269.6385  90.4441 14.98339378 43079,6950.164,96.106,574.051,570.007,0.0
56799.0,STARLINK-5953,PAYLOAD,2024-03-06 08:00:11,14.9834248,0.0002999,70.0009,33.3832,273.4349,86.6466,6.7028e-05,7.07e-06,0.0,0 STARLINK-5953,1 56799U 23078AJ  24066.33346661  .00000707  00000-0  67028-4 0  9997,2 56799  70.0009  33.3832 0002999 273.4349  86.6466 14.98342480 42833,6950.154,96.106,574.104,569.935,0.0
56799.0,STARLINK-5953,PAYLOAD,2024-03-07 01:37:41,14.98322789,0.0002742,70.0021,31.5336,273.811,86.2736,0.00012258,1.37e-05,0.0,0 STARLINK-5953,1 56799U 23078AJ  24067.06783704  .00001370  00000-0  12258-3 0  9992,2 56799  70.0021  31.5336 0002742 273.8110  86.2736 14.98322789 43200,6950.215,96.107,573.986,570.174,0.0
56799.0,STARLINK-5953,PAYLOAD,2024-03-07 14:26:45,14.98324362,0.0002609,70.0022,30.1876,267.9506,92.1355,2.9726e-05,2.62e-06,0.0,0 STARLINK-5953,1 56799U 23078AJ  24067.60191998  .00000262  00000-0  29726-4 0  9998,2 56799  70.0022  30.1876 0002609 267.9506  92.1355 14.98324362 43022,6950.21,96.107,573.889,570.262,0.0
